[{"OBJECT_NAME":"OBJECT D","OBJECT_ID":"2024-205D","EPOCH":"2026-03-09T22:51:08.688096","MEAN_MOTION":15.16787304,"ECCENTRICITY":0.00131169,"INCLINATION":97.4171,"RA_OF_ASC_NODE":142.544,"ARG_OF_PERICENTER":49.0052,"MEAN_ANOMALY":311.2313,"EPHEMERIS_TYPE":0,"CLASSIFICATION_TYPE":"U","NORAD_CAT_ID":61897,"ELEMENT_SET_NO":999,"REV_AT_EPOCH":7323,"BSTAR":0.00043241464,"MEAN_MOTION_DOT":8.448e-5,"MEAN_MOTION_DDOT":0},{"OBJECT_NAME":"FLOCK 4H-10","OBJECT_ID":"2025-276AZ","EPOCH":"2026-03-09T18:16:56.157312","MEAN_MOTION":15.18574346,"ECCENTRICITY":0.00043041,"INCLINATION":97.4259,"RA_OF_ASC_NODE":143.9692,"ARG_OF_PERICENTER":8.4136,"MEAN_ANOMALY":351.717,"EPHEMERIS_TYPE":0,"CLASSIFICATION_TYPE":"U","NORAD_CAT_ID":66713,"ELEMENT_SET_NO":999,"REV_AT_EPOCH":1532,"BSTAR":0.00041463454,"MEAN_MOTION_DOT":8.509e-5,"MEAN_MOTION_DDOT":0}]
